STARLINK-31616          
1 59270U 24050S   26068.61263666  .00001672  00000+0  68608-4 0  9999
2 59270  53.1608 181.5703 0001085 125.2346 234.8757 15.30178062110539
2025-155V               
1 64895U 25155V   26068.85787115  .00013705  00000+0  51002-3 0  9990
2 64895  97.4485  37.2490 0008035 152.8264 207.3397 15.27583301 65579
